{
  "type": "FeatureCollection",
  "features": [
    {
      "type": "Feature",
      "properties": {
        "norad_id": 66561,
        "name": "STARLINK-35305",
        "group": "last-30-days",
        "lat": -32.90154421150584,
        "lon": 38.84841626359733,
        "alt_km": 347.85858720351825,
        "timestamp": "2025-12-03T15:48:01.920171+00:00",
        "meta_object_name": "STARLINK-35305",
        "meta_object_id": "2025-268E",
        "meta_epoch": "2025-12-03T06:00:02.999808",
        "meta_mean_motion": 15.75362813,
        "meta_eccentricity": 0.00015962,
        "meta_inclination": 42.9989,
        "meta_ra_of_asc_node": 177.3528,
        "meta_arg_of_pericenter": 265.2685,
        "meta_mean_anomaly": 169.5865,
        "meta_ephemeris_type": 0,
        "meta_classification_type": "U",
        "meta_norad_cat_id": 66561,
        "meta_element_set_no": 999,
        "meta_rev_at_epoch": 309,
        "meta_bstar": -0.006717656,
        "meta_mean_motion_dot": -0.00937524,
        "meta_mean_motion_ddot": 0,
        "tle_line1": "1 66561U 25268E   25337.25003472 -.00937524  00000+0 -67177-2 0  9991",
        "tle_line2": "2 66561  42.9989 177.3528 0001596 265.2685 169.5865 15.75362813  3098"
      },
      "geometry": {
        "type": "Point",
        "coordinates": [
          38.84841626359733,
          -32.90154421150584
        ]
      }
    },
    {
      "type": "Feature",
      "properties": {
        "norad_id": 66562,
        "name": "STARLINK-35579",
        "group": "last-30-days",
        "lat": -31.9473377490566,
        "lon": 36.887938476221514,
        "alt_km": 347.7418441927048,
        "timestamp": "2025-12-03T15:48:01.920180+00:00",
        "meta_object_name": "STARLINK-35579",
        "meta_object_id": "2025-268F",
        "meta_epoch": "2025-12-03T06:00:02.999808",
        "meta_mean_motion": 15.75360248,
        "meta_eccentricity": 0.00016318,
        "meta_inclination": 42.9989,
        "meta_ra_of_asc_node": 177.3574,
        "meta_arg_of_pericenter": 259.1081,
        "meta_mean_anomaly": 173.835,
        "meta_ephemeris_type": 0,
        "meta_classification_type": "U",
        "meta_norad_cat_id": 66562,
        "meta_element_set_no": 999,
        "meta_rev_at_epoch": 314,
        "meta_bstar": -0.0067339659,
        "meta_mean_motion_dot": -0.00939481,
        "meta_mean_motion_ddot": 0,
        "tle_line1": "1 66562U 25268F   25337.25003472 -.00939481  00000+0 -67340-2 0  9998",
        "tle_line2": "2 66562  42.9989 177.3574 0001631 259.1081 173.8350 15.75360248  3145"
      },
      "geometry": {
        "type": "Point",
        "coordinates": [
          36.887938476221514,
          -31.9473377490566
        ]
      }
    },
    {
      "type": "Feature",
      "properties": {
        "norad_id": 66563,
        "name": "STARLINK-35437",
        "group": "last-30-days",
        "lat": -33.82414728996169,
        "lon": 40.85024948984944,
        "alt_km": 347.91273255357373,
        "timestamp": "2025-12-03T15:48:01.920188+00:00",
        "meta_object_name": "STARLINK-35437",
        "meta_object_id": "2025-268G",
        "meta_epoch": "2025-12-03T06:00:02.999808",
        "meta_mean_motion": 15.75359932,
        "meta_eccentricity": 0.00016961,
        "meta_inclination": 42.9988,
        "meta_ra_of_asc_node": 177.3477,
        "meta_arg_of_pericenter": 270.97,
        "meta_mean_anomaly": 165.8051,
        "meta_ephemeris_type": 0,
        "meta_classification_type": "U",
        "meta_norad_cat_id": 66563,
        "meta_element_set_no": 999,
        "meta_rev_at_epoch": 314,
        "meta_bstar": -0.006699217,
        "meta_mean_motion_dot": -0.00935147,
        "meta_mean_motion_ddot": 0,
        "tle_line1": "1 66563U 25268G   25337.25003472 -.00935147  00000+0 -66992-2 0  9996",
        "tle_line2": "2 66563  42.9988 177.3477 0001696 270.9700 165.8051 15.75359932  3144"
      },
      "geometry": {
        "type": "Point",
        "coordinates": [
          40.85024948984944,
          -33.82414728996169
        ]
      }
    },
    {
      "type": "Feature",
      "properties": {
        "norad_id": 66564,
        "name": "STARLINK-35358",
        "group": "last-30-days",
        "lat": -34.71482803928973,
        "lon": 42.89852297142686,
        "alt_km": 347.8430646328343,
        "timestamp": "2025-12-03T15:48:01.920197+00:00",
        "meta_object_name": "STARLINK-35358",
        "meta_object_id": "2025-268H",
        "meta_epoch": "2025-12-03T06:00:02.999808",
        "meta_mean_motion": 15.75356733,
        "meta_eccentricity": 0.0001707,
        "meta_inclination": 42.9987,
        "meta_ra_of_asc_node": 177.343,
        "meta_arg_of_pericenter": 264.3648,
        "meta_mean_anomaly": 174.3286,
        "meta_ephemeris_type": 0,
        "meta_classification_type": "U",
        "meta_norad_cat_id": 66564,
        "meta_element_set_no": 999,
        "meta_rev_at_epoch": 309,
        "meta_bstar": -0.0066755559,
        "meta_mean_motion_dot": -0.0093207,
        "meta_mean_motion_ddot": 0,
        "tle_line1": "1 66564U 25268H   25337.25003472 -.00932070  00000+0 -66756-2 0  9997",
        "tle_line2": "2 66564  42.9987 177.3430 0001707 264.3648 174.3286 15.75356733  3099"
      },
      "geometry": {
        "type": "Point",
        "coordinates": [
          42.89852297142686,
          -34.71482803928973
        ]
      }
    },
    {
      "type": "Feature",
      "properties": {
        "norad_id": 66565,
        "name": "STARLINK-35893",
        "group": "last-30-days",
        "lat": -35.56684147260065,
        "lon": 44.98073130583042,
        "alt_km": 347.88226914576535,
        "timestamp": "2025-12-03T15:48:01.920206+00:00",
        "meta_object_name": "STARLINK-35893",
        "meta_object_id": "2025-268J",
        "meta_epoch": "2025-12-03T06:00:02.999808",
        "meta_mean_motion": 15.75372939,
        "meta_eccentricity": 0.00020721,
        "meta_inclination": 42.9989,
        "meta_ra_of_asc_node": 177.338,
        "meta_arg_of_pericenter": 278.5214,
        "meta_mean_anomaly": 162.0781,
        "meta_ephemeris_type": 0,
        "meta_classification_type": "U",
        "meta_norad_cat_id": 66565,
        "meta_element_set_no": 999,
        "meta_rev_at_epoch": 314,
        "meta_bstar": -0.0068116453,
        "meta_mean_motion_dot": -0.00949834,
        "meta_mean_motion_ddot": 0,
        "tle_line1": "1 66565U 25268J   25337.25003472 -.00949834  00000+0 -68116-2 0  9996",
        "tle_line2": "2 66565  42.9989 177.3380 0002072 278.5214 162.0781 15.75372939  3144"
      },
      "geometry": {
        "type": "Point",
        "coordinates": [
          44.98073130583042,
          -35.56684147260065
        ]
      }
    },
    {
      "type": "Feature",
      "properties": {
        "norad_id": 66566,
        "name": "STARLINK-35871",
        "group": "last-30-days",
        "lat": -36.38562058054858,
        "lon": 47.11692071620086,
        "alt_km": 347.90198650238653,
        "timestamp": "2025-12-03T15:48:01.920215+00:00",
        "meta_object_name": "STARLINK-35871",
        "meta_object_id": "2025-268K",
        "meta_epoch": "2025-12-03T06:00:02.999808",
        "meta_mean_motion": 15.75365801,
        "meta_eccentricity": 0.00020012,
        "meta_inclination": 42.9989,
        "meta_ra_of_asc_node": 177.3331,
        "meta_arg_of_pericenter": 277.0845,
        "meta_mean_anomaly": 165.4375,
        "meta_ephemeris_type": 0,
        "meta_classification_type": "U",
        "meta_norad_cat_id": 66566,
        "meta_element_set_no": 999,
        "meta_rev_at_epoch": 314,
        "meta_bstar": -0.0067561011,
        "meta_mean_motion_dot": -0.009426,
        "meta_mean_motion_ddot": 0,
        "tle_line1": "1 66566U 25268K   25337.25003472 -.00942600  00000+0 -67561-2 0  9994",
        "tle_line2": "2 66566  42.9989 177.3331 0002001 277.0845 165.4375 15.75365801  3143"
      },
      "geometry": {
        "type": "Point",
        "coordinates": [
          47.11692071620086,
          -36.38562058054858
        ]
      }
    },
    {
      "type": "Feature",
      "properties": {
        "norad_id": 66567,
        "name": "STARLINK-35825",
        "group": "last-30-days",
        "lat": -37.166390236528215,
        "lon": 49.30080937652045,
        "alt_km": 348.09585001296455,
        "timestamp": "2025-12-03T15:48:01.920224+00:00",
        "meta_object_name": "STARLINK-35825",
        "meta_object_id": "2025-268L",
        "meta_epoch": "2025-12-03T06:00:02.999808",
        "meta_mean_motion": 15.75381606,
        "meta_eccentricity": 0.00014084,
        "meta_inclination": 42.9989,
        "meta_ra_of_asc_node": 177.3286,
        "meta_arg_of_pericenter": 269.4363,
        "meta_mean_anomaly": 174.976,
        "meta_ephemeris_type": 0,
        "meta_classification_type": "U",
        "meta_norad_cat_id": 66567,
        "meta_element_set_no": 999,
        "meta_rev_at_epoch": 314,
        "meta_bstar": -0.0067428835,
        "meta_mean_motion_dot": -0.00941309,
        "meta_mean_motion_ddot": 0,
        "tle_line1": "1 66567U 25268L   25337.25003472 -.00941309  00000+0 -67429-2 0  9993",
        "tle_line2": "2 66567  42.9989 177.3286 0001408 269.4363 174.9760 15.75381606  3147"
      },
      "geometry": {
        "type": "Point",
        "coordinates": [
          49.30080937652045,
          -37.166390236528215
        ]
      }
    }
  ]
}